{
    "links": {
        "self": "http://www.neowsapp.com/rest/v1/neo/3551166?api_key=iIulBulltgU6a56xZRHN4H3l9WmuAYTsLGpBGhQ2"
    },
    "id": "3551166",
    "neo_reference_id": "3551166",
    "name": "(2010 VO98)",
    "designation": "2010 VO98",
    "nasa_jpl_url": "http://ssd.jpl.nasa.gov/sbdb.cgi?sstr=3551166",
    "absolute_magnitude_h": 25.3,
    "estimated_diameter": {
        "kilometers": {
            "estimated_diameter_min": 0.0231502122,
            "estimated_diameter_max": 0.0517654482
        },
        "meters": {
            "estimated_diameter_min": 23.150212221,
            "estimated_diameter_max": 51.7654482198
        },
        "miles": {
            "estimated_diameter_min": 0.0143848705,
            "estimated_diameter_max": 0.0321655483
        },
        "feet": {
            "estimated_diameter_min": 75.9521422633,
            "estimated_diameter_max": 169.8341531374
        }
    },
    "is_potentially_hazardous_asteroid": false,
    "close_approach_data": [
        {
            "close_approach_date": "2010-09-08",
            "close_approach_date_full": "2010-Sep-08 08:54",
            "epoch_date_close_approach": 1283936040000,
            "relative_velocity": {
                "kilometers_per_second": "8.1388806245",
                "kilometers_per_hour": "29299.9702483632",
                "miles_per_hour": "18205.8620690454"
            },
            "miss_distance": {
                "astronomical": "0.1473096441",
                "lunar": "57.3034515549",
                "kilometers": "22037208.987818067",
                "miles": "13693286.6988886446"
            },
            "orbiting_body": "Venus"
        },
        {
            "close_approach_date": "2010-10-30",
            "close_approach_date_full": "2010-Oct-30 14:20",
            "epoch_date_close_approach": 1288448400000,
            "relative_velocity": {
                "kilometers_per_second": "12.6527626365",
                "kilometers_per_hour": "45549.9454912942",
                "miles_per_hour": "28302.9647415211"
            },
            "miss_distance": {
                "astronomical": "0.0280520718",
                "lunar": "10.9122559302",
                "kilometers": "4196530.190367066",
                "miles": "2607602.9441388708"
            },
            "orbiting_body": "Earth"
        },
        {
            "close_approach_date": "2117-11-05",
            "close_approach_date_full": "2117-Nov-05 07:02",
            "epoch_date_close_approach": 4665538920000,
            "relative_velocity": {
                "kilometers_per_second": "14.482956026",
                "kilometers_per_hour": "52138.6416936749",
                "miles_per_hour": "32396.9243346059"
            },
            "miss_distance": {
                "astronomical": "0.0646865903",
                "lunar": "25.1630836267",
                "kilometers": "9676976.126442661",
                "miles": "6012994.1387282818"
            },
            "orbiting_body": "Earth"
        }
    ],
    "orbital_data": {
        "orbit_id": "7",
        "orbit_determination_date": "2019-07-16 06:14:07",
        "first_observation_date": "2010-11-08",
        "last_observation_date": "2010-11-11",
        "data_arc_in_days": 3,
        "observations_used": 12,
        "orbit_uncertainty": "9",
        "minimum_orbit_intersection": ".0278042",
        "jupiter_tisserand_invariant": "4.551",
        "epoch_osculation": "2455509.5",
        "eccentricity": ".4419533480985827",
        "semi_major_axis": "1.438815074146612",
        "inclination": "7.826089897647589",
        "ascending_node_longitude": "48.24468647297574",
        "orbital_period": "630.3850363764507",
        "perihelion_distance": ".8029259348328065",
        "perihelion_argument": "279.4219988482974",
        "aphelion_distance": "2.074704213460418",
        "perihelion_time": "2455450.748584504722",
        "mean_anomaly": "33.5517316525729",
        "mean_motion": ".5710795453986899",
        "equinox": "J2000",
        "orbit_class": {
            "orbit_class_type": "APO",
            "orbit_class_description": "Near-Earth asteroid orbits which cross the Earth’s orbit similar to that of 1862 Apollo",
            "orbit_class_range": "a (semi-major axis) > 1.0 AU; q (perihelion) < 1.017 AU"
        }
    },
    "is_sentry_object": false
}